GPS BIIR-2  (PRN 13)    
1 24876U 97035A   17237.37131020  .00000023  00000-0  00000-0 0  9993
2 24876  55.5391 224.3879 0032735 102.5288 257.8209  2.00561041147417
GPS BIIR-3  (PRN 11)    
1 25933U 99055A   17237.69378858 -.00000060  00000-0  00000-0 0  9991
2 25933  51.6808  74.5943 0168272  96.4914  65.2700  2.00556967131042
GPS BIIR-4  (PRN 20)    
1 26360U 00025A   17237.89515184 -.00000017  00000-0  00000-0 0  9994
2 26360  53.1281 151.9839 0042508  94.6973 315.4933  2.00556685126747
GPS BIIR-5  (PRN 28)    
1 26407U 00040A   17237.95432200 -.00000091  00000-0  00000-0 0  9999
2 26407  56.6097 342.4305 0200327 270.2226 105.0372  2.00566262125421
GPS BIIR-6  (PRN 14)    
1 26605U 00071A   17237.74543000  .00000026  00000-0  00000-0 0  9998
2 26605  55.1108 222.0780 0095702 248.7734 243.9239  2.00562043123011
GPS BIIR-7  (PRN 18)    
1 26690U 01004A   17237.79049994 -.00000014  00000-0  00000-0 0  9995
2 26690  53.0491 154.9225 0183607 257.8768  18.7953  2.00568651121418
GPS BIIR-8  (PRN 16)    
1 27663U 03005A   17237.27792411 -.00000089  00000-0  00000+0 0  9992
2 27663  56.6780 342.1998 0091712  25.2433 337.3316  2.00555254106767
GPS BIIR-9  (PRN 21)    
1 27704U 03010A   17236.78052381 -.00000039  00000-0  00000+0 0  9999
2 27704  53.8981  95.3732 0241571 265.6749  61.2164  2.00569541105552
GPS BIIR-10 (PRN 22)    
1 28129U 03058A   17237.56424931 -.00000014  00000-0  00000-0 0  9998
2 28129  52.9389 154.9145 0075651 263.6579  95.5032  2.00554561100251
GPS BIIR-11 (PRN 19)    
1 28190U 04009A   17237.90943566 -.00000068  00000-0  00000-0 0  9990
2 28190  56.0425  43.1593 0099388  59.7328 193.4829  2.00563618 98453
GPS BIIR-12 (PRN 23)    
1 28361U 04023A   17237.87953476  .00000025  00000-0  00000-0 0  9995
2 28361  54.0995 217.1145 0120459 221.7566 279.5464  2.00560892 96515
GPS BIIR-13 (PRN 02)    
1 28474U 04045A   17237.57896932 -.00000043  00000-0  00000-0 0  9995
2 28474  54.2759  94.8385 0171977 247.8889  37.9550  2.00575564 93896
GPS BIIRM-1 (PRN 17)    
1 28874U 05038A   17237.52785264 -.00000071  00000-0  00000-0 0  9993
2 28874  56.1958  40.4458 0119865 254.4426 105.2431  2.00563818 87304
GPS BIIRM-2 (PRN 31)    
1 29486U 06042A   17237.75221413 -.00000024  00000-0  00000-0 0  9993
2 29486  55.3546 279.5047 0085375 344.2420  95.7703  2.00552975 79901
GPS BIIRM-3 (PRN 12)    
1 29601U 06052A   17237.58258688 -.00000089  00000-0  00000-0 0  9999
2 29601  56.6511 341.1067 0063785  51.1732 309.4239  2.00557510 78879
GPS BIIRM-4 (PRN 15)    
1 32260U 07047A   17237.40310318  .00000018  00000-0  00000-0 0  9990
2 32260  53.2254 213.4208 0093639  32.8776 327.6716  2.00571838 72318
GPS BIIRM-5 (PRN 29)    
1 32384U 07062A   17237.73629000 -.00000070  00000-0  00000-0 0  9990
2 32384  56.2621  41.0244 0004200  26.5079 352.8917  2.00575161 71026
GPS BIIRM-6 (PRN 07)    
1 32711U 08012A   17237.30963477 -.00000024  00000-0  00000-0 0  9991
2 32711  55.0842 278.8733 0111245 213.8470 145.4996  2.00557725 69238
GPS BIIRM-8 (PRN 05)    
1 35752U 09043A   17237.42587095 -.00000010  00000-0  00000+0 0  9999
2 35752  54.2618 156.7119 0050619  31.2172  74.8746  2.00546898 58806
GPS BIIF-1  (PRN 25)    
1 36585U 10022A   17237.68043441 -.00000090  00000-0  00000-0 0  9992
2 36585  55.9546 337.8723 0063889  46.2498 355.5361  2.00553310 53064
GPS BIIF-2  (PRN 01)    
1 37753U 11036A   17237.59183845 -.00000039  00000-0  00000-0 0  9992
2 37753  55.4809  98.0062 0068671  33.3357  27.7888  2.00562825 44744
GPS BIIF-3  (PRN 24)    
1 38833U 12053A   17237.49682959 -.00000022  00000-0  00000-0 0  9993
2 38833  54.1128 275.7142 0057194  24.8379 335.4951  2.00562748 35018
GPS BIIF-4  (PRN 27)    
1 39166U 13023A   17237.84817963 -.00000073  00000-0  00000-0 0  9991
2 39166  55.9016  37.4260 0048321  20.3082 339.8947  2.00564499 31352
GPS BIIF-5  (PRN 30)    
1 39533U 14008A   17237.35344931 -.00000029  00000-0  00000-0 0  9990
2 39533  54.2650 281.0269 0030710 187.9347 172.0796  2.00567563 25165
GPS BIIF-6  (PRN 06)    
1 39741U 14026A   17237.63191118 -.00000040  00000-0  00000-0 0  9992
2 39741  55.4672  97.5253 0007971 290.9566  69.0390  2.00556698 24001
GPS BIIF-7  (PRN 09)    
1 40105U 14045A   17237.71849835  .00000025  00000-0  00000-0 0  9996
2 40105  54.6234 217.0649 0004684 115.1384 244.8862  2.00575728 21575
GPS BIIF-8  (PRN 03)    
1 40294U 14068A   17237.59687595 -.00000008  00000-0  00000-0 0  9991
2 40294  55.0102 157.7391 0008703   5.1797 354.8480  2.00563611 20675
GPS BIIF-9  (PRN 26)    
1 40534U 15013A   17237.73443644 -.00000091  00000-0  00000-0 0  9992
2 40534  54.9068 336.8956 0018493 354.2728   5.7420  2.00554177 17294
GPS BIIF-10  (PRN 08)   
1 40730U 15033A   17236.39348453 -.00000078  00000-0  00000+0 0  9999
2 40730  55.4347  37.1240 0027010 320.2964  39.5168  2.00563262 15450
GPS BIIF-11  (PRN 10)   
1 41019U 15062A   17237.44521463 -.00000008  00000-0  00000-0 0  9997
2 41019  55.0186 157.5361 0027835 202.7243 157.1712  2.00563708 13295
GPS BIIF-12  (PRN 32)   
1 41328U 16007A   17237.53578806  .00000024  00000-0  00000-0 0  9990
2 41328  54.8794 217.2809 0015647 221.6871 138.1693  2.00553940 11355
